[{"OBJECT_NAME":"YAOGAN-35 04A","OBJECT_ID":"2022-100A","EPOCH":"2026-03-06T19:06:06.057216","MEAN_MOTION":15.2292121,"ECCENTRICITY":0.00089031,"INCLINATION":35.0121,"RA_OF_ASC_NODE":335.6537,"ARG_OF_PERICENTER":77.9263,"MEAN_ANOMALY":282.2449,"EPHEMERIS_TYPE":0,"CLASSIFICATION_TYPE":"U","NORAD_CAT_ID":53522,"ELEMENT_SET_NO":999,"REV_AT_EPOCH":19764,"BSTAR":1.9251867e-5,"MEAN_MOTION_DOT":4.25e-6,"MEAN_MOTION_DDOT":0},{"OBJECT_NAME":"STARLINK-30119","OBJECT_ID":"2023-079A","EPOCH":"2026-03-09T22:00:01.999584","MEAN_MOTION":15.19202714,"ECCENTRICITY":0.00015032,"INCLINATION":42.9996,"RA_OF_ASC_NODE":105.4949,"ARG_OF_PERICENTER":287.4614,"MEAN_ANOMALY":161.0846,"EPHEMERIS_TYPE":0,"CLASSIFICATION_TYPE":"U","NORAD_CAT_ID":56823,"ELEMENT_SET_NO":999,"REV_AT_EPOCH":578,"BSTAR":0.053394577,"MEAN_MOTION_DOT":0.01254132,"MEAN_MOTION_DDOT":0}]
